{
  "links" : {
    "next" : "https://api.nasa.gov/neo/rest/v1/feed?start_date=2004-09-16&end_date=2004-09-16&detailed=true&api_key=t0TVs3DtDT2H8Oy2Zy8m2eVrNsAVKAexjcZXUckd",
    "prev" : "https://api.nasa.gov/neo/rest/v1/feed?start_date=2004-09-14&end_date=2004-09-14&detailed=true&api_key=t0TVs3DtDT2H8Oy2Zy8m2eVrNsAVKAexjcZXUckd",
    "self" : "https://api.nasa.gov/neo/rest/v1/feed?start_date=2004-09-15&end_date=2004-09-15&detailed=true&api_key=t0TVs3DtDT2H8Oy2Zy8m2eVrNsAVKAexjcZXUckd"
  },
  "element_count" : 5,
  "near_earth_objects" : {
    "2004-09-15" : [ {
      "links" : {
        "self" : "https://api.nasa.gov/neo/rest/v1/neo/2011066?api_key=t0TVs3DtDT2H8Oy2Zy8m2eVrNsAVKAexjcZXUckd"
      },
      "neo_reference_id" : "2011066",
      "name" : "11066 Sigurd (1992 CC1)",
      "nasa_jpl_url" : "http://ssd.jpl.nasa.gov/sbdb.cgi?sstr=2011066",
      "absolute_magnitude_h" : 15.2,
      "estimated_diameter" : {
        "kilometers" : {
          "estimated_diameter_min" : 2.424124811,
          "estimated_diameter_max" : 5.4205078634
        },
        "meters" : {
          "estimated_diameter_min" : 2424.124811008,
          "estimated_diameter_max" : 5420.5078633577
        },
        "miles" : {
          "estimated_diameter_min" : 1.5062808579,
          "estimated_diameter_max" : 3.3681463916
        },
        "feet" : {
          "estimated_diameter_min" : 7953.1656449475,
          "estimated_diameter_max" : 17783.8190184186
        }
      },
      "is_potentially_hazardous_asteroid" : false,
      "close_approach_data" : [ {
        "close_approach_date" : "2004-09-15",
        "epoch_date_close_approach" : 1095231600000,
        "relative_velocity" : {
          "kilometers_per_second" : "22.0740472564",
          "kilometers_per_hour" : "79466.5701229608",
          "miles_per_hour" : "49377.436307792"
        },
        "miss_distance" : {
          "astronomical" : "0.1367027097",
          "lunar" : "53.17735672",
          "kilometers" : "20450436",
          "miles" : "12707311"
        },
        "orbiting_body" : "Earth"
      } ],
      "orbital_data" : {
        "orbit_id" : "188",
        "orbit_determination_date" : "2017-06-22 06:21:06",
        "orbit_uncertainty" : "0",
        "minimum_orbit_intersection" : ".118327",
        "jupiter_tisserand_invariant" : "4.506",
        "epoch_osculation" : "2458000.5",
        "eccentricity" : ".3753816859282663",
        "semi_major_axis" : "1.391484868264752",
        "inclination" : "36.88285706608059",
        "ascending_node_longitude" : "349.2457907129908",
        "orbital_period" : "599.5372324153017",
        "perihelion_distance" : ".8691469324718575",
        "perihelion_argument" : "22.00620475726865",
        "aphelion_distance" : "1.913822804057646",
        "perihelion_time" : "2458077.024417935375",
        "mean_anomaly" : "314.0499088843047",
        "mean_motion" : ".6004631247832606",
        "equinox" : "J2000"
      }
    }, {
      "links" : {
        "self" : "https://api.nasa.gov/neo/rest/v1/neo/3249864?api_key=t0TVs3DtDT2H8Oy2Zy8m2eVrNsAVKAexjcZXUckd"
      },
      "neo_reference_id" : "3249864",
      "name" : "(2004 QZ1)",
      "nasa_jpl_url" : "http://ssd.jpl.nasa.gov/sbdb.cgi?sstr=3249864",
      "absolute_magnitude_h" : 20.8,
      "estimated_diameter" : {
        "kilometers" : {
          "estimated_diameter_min" : 0.1838886721,
          "estimated_diameter_max" : 0.411187571
        },
        "meters" : {
          "estimated_diameter_min" : 183.8886720703,
          "estimated_diameter_max" : 411.1875710413
        },
        "miles" : {
          "estimated_diameter_min" : 0.1142630881,
          "estimated_diameter_max" : 0.2555000322
        },
        "feet" : {
          "estimated_diameter_min" : 603.309310875,
          "estimated_diameter_max" : 1349.040630575
        }
      },
      "is_potentially_hazardous_asteroid" : false,
      "close_approach_data" : [ {
        "close_approach_date" : "2004-09-15",
        "epoch_date_close_approach" : 1095231600000,
        "relative_velocity" : {
          "kilometers_per_second" : "19.0329219955",
          "kilometers_per_hour" : "68518.5191837334",
          "miles_per_hour" : "42574.7432116926"
        },
        "miss_distance" : {
          "astronomical" : "0.1265835655",
          "lunar" : "49.2410049438",
          "kilometers" : "18936632",
          "miles" : "11766677"
        },
        "orbiting_body" : "Earth"
      } ],
      "orbital_data" : {
        "orbit_id" : "28",
        "orbit_determination_date" : "2017-04-06 09:12:28",
        "orbit_uncertainty" : "1",
        "minimum_orbit_intersection" : ".09317",
        "jupiter_tisserand_invariant" : "3.629",
        "epoch_osculation" : "2458000.5",
        "eccentricity" : ".709798063844691",
        "semi_major_axis" : "1.865721484176834",
        "inclination" : "5.495184364091519",
        "ascending_node_longitude" : "257.7187265354436",
        "orbital_period" : "930.8263003325576",
        "perihelion_distance" : ".5414359870346739",
        "perihelion_argument" : "186.5805621197773",
        "aphelion_distance" : "3.190006981318994",
        "perihelion_time" : "2457964.701713029871",
        "mean_anomaly" : "13.84510010583291",
        "mean_motion" : ".3867531459643784",
        "equinox" : "J2000"
      }
    }, {
      "links" : {
        "self" : "https://api.nasa.gov/neo/rest/v1/neo/3648469?api_key=t0TVs3DtDT2H8Oy2Zy8m2eVrNsAVKAexjcZXUckd"
      },
      "neo_reference_id" : "3648469",
      "name" : "(2013 ST)",
      "nasa_jpl_url" : "http://ssd.jpl.nasa.gov/sbdb.cgi?sstr=3648469",
      "absolute_magnitude_h" : 24.7,
      "estimated_diameter" : {
        "kilometers" : {
          "estimated_diameter_min" : 0.0305179233,
          "estimated_diameter_max" : 0.0682401509
        },
        "meters" : {
          "estimated_diameter_min" : 30.5179232594,
          "estimated_diameter_max" : 68.2401509401
        },
        "miles" : {
          "estimated_diameter_min" : 0.0189629525,
          "estimated_diameter_max" : 0.0424024508
        },
        "feet" : {
          "estimated_diameter_min" : 100.1244233463,
          "estimated_diameter_max" : 223.8850168104
        }
      },
      "is_potentially_hazardous_asteroid" : false,
      "close_approach_data" : [ {
        "close_approach_date" : "2004-09-15",
        "epoch_date_close_approach" : 1095231600000,
        "relative_velocity" : {
          "kilometers_per_second" : "11.2557306338",
          "kilometers_per_hour" : "40520.6302815094",
          "miles_per_hour" : "25177.9438546412"
        },
        "miss_distance" : {
          "astronomical" : "0.1565968471",
          "lunar" : "60.9161758423",
          "kilometers" : "23426556",
          "miles" : "14556587"
        },
        "orbiting_body" : "Earth"
      } ],
      "orbital_data" : {
        "orbit_id" : "11",
        "orbit_determination_date" : "2017-04-06 08:44:38",
        "orbit_uncertainty" : "6",
        "minimum_orbit_intersection" : ".0302126",
        "jupiter_tisserand_invariant" : "6.745",
        "epoch_osculation" : "2458000.5",
        "eccentricity" : ".2236385349754972",
        "semi_major_axis" : ".8729409927599596",
        "inclination" : "10.83660347533255",
        "ascending_node_longitude" : "182.6653172473011",
        "orbital_period" : "297.9036052584413",
        "perihelion_distance" : ".6777177480190661",
        "perihelion_argument" : "24.59716845485712",
        "aphelion_distance" : "1.068164237500853",
        "perihelion_time" : "2457932.304011101556",
        "mean_anomaly" : "82.41107381745688",
        "mean_motion" : "1.208444589610414",
        "equinox" : "J2000"
      }
    } ]
  }
}